MALLIGYONG-1            
1 58400U 23179A   24225.61102536  .00024268  00000+0  10641-2 0  9993
2 58400  97.3952 111.5051 0002362  52.2570 307.8880 15.21972547 40306
